STARLINK-31985          
1 60036U 24111W   26020.95513423 -.00005603  00000+0 -17737-3 0  9999
2 60036  53.1616 297.4491 0001704  93.1652 266.9544 15.30164342 91660
STARLINK-31918          
1 60037U 24111X   26020.99089341 -.00004751  00000+0 -14853-3 0  9990
2 60037  53.1602 296.9654 0001294 104.3743 255.7402 15.30170229 91661
STARLINK-11129 [DTC]    
1 60038U 24112A   26020.72832776 -.00005166  00000+0 -37867-4 0  9993
2 60038  53.1585 143.0342 0001110 100.5329 259.5814 15.69674773 93445
STARLINK-11140 [DTC]    
1 60039U 24112B   26020.72341242 -.00010687  00000+0 -83602-4 0  9999
2 60039  53.1589 143.0011 0001537  77.3364 282.7826 15.69669563 93448
STARLINK-11122 [DTC]    
1 60040U 24112C   26020.71853269 -.00008174  00000+0 -62799-4 0  9999
2 60040  53.1594 142.9684 0001702  87.7727 272.3486 15.69659844 93440
STARLINK-11149 [DTC]    
1 60041U 24112D   26020.71359919 -.00004889  00000+0 -35554-4 0  9991
2 60041  53.1613 142.9341 0001339  73.9551 286.1615 15.69686474 93447
STARLINK-11120 [DTC]    
1 60042U 24112E   26020.89972059 -.00005498  00000+0 -40627-4 0  9991
2 60042  53.1592 141.9649 0000957  83.2034 276.9093 15.69667208 93473
STARLINK-11086 [DTC]    
1 60043U 24112F   26020.83115352 -.00008607  00000+0 -66397-4 0  9998
2 60043  53.1593 142.2431 0000957 114.8565 245.2552 15.69660420 93465
STARLINK-11148 [DTC]    
1 60044U 24112G   26020.76256323 -.00009940  00000+0 -77359-4 0  9996
2 60044  53.1588 142.5234 0001107  74.1057 286.0083 15.69687387 93458
STARLINK-11116 [DTC]    
1 60045U 24112H   26020.75762993 -.00002401  00000+0 -14966-4 0  9991
2 60045  53.1582 142.4916 0000739 122.4941 237.6149 15.69713708 93450
STARLINK-11155 [DTC]    
1 60046U 24112J   26020.75273218 -.00002959  00000+0 -19573-4 0  9996
2 60046  53.1587 142.4570 0000740  98.9465 261.1637 15.69712332 93458
STARLINK-11163 [DTC]    
1 60047U 24112K   26020.62048034 -.00007629  00000+0 -58198-4 0  9994
2 60047  53.1575 143.0538 0000730 129.8841 230.2241 15.69700347 93437
STARLINK-11135 [DTC]    
1 60048U 24112L   26020.60576106 -.00003015  00000+0 -20032-4 0  9990
2 60048  53.1596 142.9739 0001434 105.7114 254.4063 15.69712155 93430
STARLINK-11151 [DTC]    
1 60049U 24112M   26020.74292455 -.00006525  00000+0 -49073-4 0  9993
2 60049  53.1581 142.3901 0001185 121.7985 238.3148 15.69695556 93459
STARLINK-11137 [DTC]    
1 60050U 24112N   26020.73799523 -.00009093  00000+0 -70331-4 0  9996
2 60050  53.1583 142.3618 0000928 105.3009 254.8112 15.69693527 93457
STARLINK-31811          
1 60051U 24112P   26020.95675591  .00000354  00000+0  24067-4 0  9993
2 60051  53.1609 300.0501 0001271  87.8686 272.2460 15.30206188 91288
