[{"OBJECT_NAME":"STARLINK-31985","OBJECT_ID":"2024-111W","EPOCH":"2026-01-20T22:55:23.597472","MEAN_MOTION":15.30164342,"ECCENTRICITY":0.00017041,"INCLINATION":53.1616,"RA_OF_ASC_NODE":297.4491,"ARG_OF_PERICENTER":93.1652,"MEAN_ANOMALY":266.9544,"EPHEMERIS_TYPE":0,"CLASSIFICATION_TYPE":"U","NORAD_CAT_ID":60036,"ELEMENT_SET_NO":999,"REV_AT_EPOCH":9166,"BSTAR":-0.00017737319,"MEAN_MOTION_DOT":-5.603e-5,"MEAN_MOTION_DDOT":0},{"OBJECT_NAME":"STARLINK-31918","OBJECT_ID":"2024-111X","EPOCH":"2026-01-20T23:46:53.190624","MEAN_MOTION":15.30170229,"ECCENTRICITY":0.00012942,"INCLINATION":53.1602,"RA_OF_ASC_NODE":296.9654,"ARG_OF_PERICENTER":104.3743,"MEAN_ANOMALY":255.7402,"EPHEMERIS_TYPE":0,"CLASSIFICATION_TYPE":"U","NORAD_CAT_ID":60037,"ELEMENT_SET_NO":999,"REV_AT_EPOCH":9166,"BSTAR":-0.00014852501,"MEAN_MOTION_DOT":-4.751e-5,"MEAN_MOTION_DDOT":0},{"OBJECT_NAME":"STARLINK-11129 [DTC]","OBJECT_ID":"2024-112A","EPOCH":"2026-01-20T17:28:47.518464","MEAN_MOTION":15.69674773,"ECCENTRICITY":0.00011106,"INCLINATION":53.1585,"RA_OF_ASC_NODE":143.0342,"ARG_OF_PERICENTER":100.5329,"MEAN_ANOMALY":259.5814,"EPHEMERIS_TYPE":0,"CLASSIFICATION_TYPE":"U","NORAD_CAT_ID":60038,"ELEMENT_SET_NO":999,"REV_AT_EPOCH":9344,"BSTAR":-3.7867212e-5,"MEAN_MOTION_DOT":-5.166e-5,"MEAN_MOTION_DDOT":0},{"OBJECT_NAME":"STARLINK-11140 [DTC]","OBJECT_ID":"2024-112B","EPOCH":"2026-01-20T17:21:42.833088","MEAN_MOTION":15.69669563,"ECCENTRICITY":0.00015375,"INCLINATION":53.1589,"RA_OF_ASC_NODE":143.0011,"ARG_OF_PERICENTER":77.3364,"MEAN_ANOMALY":282.7826,"EPHEMERIS_TYPE":0,"CLASSIFICATION_TYPE":"U","NORAD_CAT_ID":60039,"ELEMENT_SET_NO":999,"REV_AT_EPOCH":9344,"BSTAR":-8.3601501e-5,"MEAN_MOTION_DOT":-0.00010687,"MEAN_MOTION_DDOT":0},{"OBJECT_NAME":"STARLINK-11122 [DTC]","OBJECT_ID":"2024-112C","EPOCH":"2026-01-20T17:14:41.224416","MEAN_MOTION":15.69659844,"ECCENTRICITY":0.00017026,"INCLINATION":53.1594,"RA_OF_ASC_NODE":142.9684,"ARG_OF_PERICENTER":87.7727,"MEAN_ANOMALY":272.3486,"EPHEMERIS_TYPE":0,"CLASSIFICATION_TYPE":"U","NORAD_CAT_ID":60040,"ELEMENT_SET_NO":999,"REV_AT_EPOCH":9344,"BSTAR":-6.2799452e-5,"MEAN_MOTION_DOT":-8.174e-5,"MEAN_MOTION_DDOT":0},{"OBJECT_NAME":"STARLINK-11149 [DTC]","OBJECT_ID":"2024-112D","EPOCH":"2026-01-20T17:07:34.970016","MEAN_MOTION":15.69686474,"ECCENTRICITY":0.00013393,"INCLINATION":53.1613,"RA_OF_ASC_NODE":142.9341,"ARG_OF_PERICENTER":73.9551,"MEAN_ANOMALY":286.1615,"EPHEMERIS_TYPE":0,"CLASSIFICATION_TYPE":"U","NORAD_CAT_ID":60041,"ELEMENT_SET_NO":999,"REV_AT_EPOCH":9344,"BSTAR":-3.5553866e-5,"MEAN_MOTION_DOT":-4.889e-5,"MEAN_MOTION_DDOT":0},{"OBJECT_NAME":"STARLINK-11120 [DTC]","OBJECT_ID":"2024-112E","EPOCH":"2026-01-20T21:35:35.858976","MEAN_MOTION":15.69667208,"ECCENTRICITY":9.575e-5,"INCLINATION":53.1592,"RA_OF_ASC_NODE":141.9649,"ARG_OF_PERICENTER":83.2034,"MEAN_ANOMALY":276.9093,"EPHEMERIS_TYPE":0,"CLASSIFICATION_TYPE":"U","NORAD_CAT_ID":60042,"ELEMENT_SET_NO":999,"REV_AT_EPOCH":9347,"BSTAR":-4.0627101e-5,"MEAN_MOTION_DOT":-5.498e-5,"MEAN_MOTION_DDOT":0},{"OBJECT_NAME":"STARLINK-11086 [DTC]","OBJECT_ID":"2024-112F","EPOCH":"2026-01-20T19:56:51.664128","MEAN_MOTION":15.6966042,"ECCENTRICITY":9.572e-5,"INCLINATION":53.1593,"RA_OF_ASC_NODE":142.2431,"ARG_OF_PERICENTER":114.8565,"MEAN_ANOMALY":245.2552,"EPHEMERIS_TYPE":0,"CLASSIFICATION_TYPE":"U","NORAD_CAT_ID":60043,"ELEMENT_SET_NO":999,"REV_AT_EPOCH":9346,"BSTAR":-6.6396722e-5,"MEAN_MOTION_DOT":-8.607e-5,"MEAN_MOTION_DDOT":0},{"OBJECT_NAME":"STARLINK-11148 [DTC]","OBJECT_ID":"2024-112G","EPOCH":"2026-01-20T18:18:05.463072","MEAN_MOTION":15.69687387,"ECCENTRICITY":0.00011076,"INCLINATION":53.1588,"RA_OF_ASC_NODE":142.5234,"ARG_OF_PERICENTER":74.1057,"MEAN_ANOMALY":286.0083,"EPHEMERIS_TYPE":0,"CLASSIFICATION_TYPE":"U","NORAD_CAT_ID":60044,"ELEMENT_SET_NO":999,"REV_AT_EPOCH":9345,"BSTAR":-7.7359143e-5,"MEAN_MOTION_DOT":-9.94e-5,"MEAN_MOTION_DDOT":0},{"OBJECT_NAME":"STARLINK-11116 [DTC]","OBJECT_ID":"2024-112H","EPOCH":"2026-01-20T18:10:59.225952","MEAN_MOTION":15.69713708,"ECCENTRICITY":7.396e-5,"INCLINATION":53.1582,"RA_OF_ASC_NODE":142.4916,"ARG_OF_PERICENTER":122.4941,"MEAN_ANOMALY":237.6149,"EPHEMERIS_TYPE":0,"CLASSIFICATION_TYPE":"U","NORAD_CAT_ID":60045,"ELEMENT_SET_NO":999,"REV_AT_EPOCH":9345,"BSTAR":-1.4966359e-5,"MEAN_MOTION_DOT":-2.401e-5,"MEAN_MOTION_DDOT":0},{"OBJECT_NAME":"STARLINK-11155 [DTC]","OBJECT_ID":"2024-112J","EPOCH":"2026-01-20T18:03:56.060352","MEAN_MOTION":15.69712332,"ECCENTRICITY":7.407e-5,"INCLINATION":53.1587,"RA_OF_ASC_NODE":142.457,"ARG_OF_PERICENTER":98.9465,"MEAN_ANOMALY":261.1637,"EPHEMERIS_TYPE":0,"CLASSIFICATION_TYPE":"U","NORAD_CAT_ID":60046,"ELEMENT_SET_NO":999,"REV_AT_EPOCH":9345,"BSTAR":-1.9572819e-5,"MEAN_MOTION_DOT":-2.959e-5,"MEAN_MOTION_DDOT":0},{"OBJECT_NAME":"STARLINK-11163 [DTC]","OBJECT_ID":"2024-112K","EPOCH":"2026-01-20T14:53:29.501376","MEAN_MOTION":15.69700347,"ECCENTRICITY":7.304e-5,"INCLINATION":53.1575,"RA_OF_ASC_NODE":143.0538,"ARG_OF_PERICENTER":129.8841,"MEAN_ANOMALY":230.2241,"EPHEMERIS_TYPE":0,"CLASSIFICATION_TYPE":"U","NORAD_CAT_ID":60047,"ELEMENT_SET_NO":999,"REV_AT_EPOCH":9343,"BSTAR":-5.8197821e-5,"MEAN_MOTION_DOT":-7.629e-5,"MEAN_MOTION_DDOT":0},{"OBJECT_NAME":"STARLINK-11135 [DTC]","OBJECT_ID":"2024-112L","EPOCH":"2026-01-20T14:32:17.755584","MEAN_MOTION":15.69712155,"ECCENTRICITY":0.00014347,"INCLINATION":53.1596,"RA_OF_ASC_NODE":142.9739,"ARG_OF_PERICENTER":105.7114,"MEAN_ANOMALY":254.4063,"EPHEMERIS_TYPE":0,"CLASSIFICATION_TYPE":"U","NORAD_CAT_ID":60048,"ELEMENT_SET_NO":999,"REV_AT_EPOCH":9343,"BSTAR":-2.0032227e-5,"MEAN_MOTION_DOT":-3.015e-5,"MEAN_MOTION_DDOT":0},{"OBJECT_NAME":"STARLINK-11151 [DTC]","OBJECT_ID":"2024-112M","EPOCH":"2026-01-20T17:49:48.681120","MEAN_MOTION":15.69695556,"ECCENTRICITY":0.00011851,"INCLINATION":53.1581,"RA_OF_ASC_NODE":142.3901,"ARG_OF_PERICENTER":121.7985,"MEAN_ANOMALY":238.3148,"EPHEMERIS_TYPE":0,"CLASSIFICATION_TYPE":"U","NORAD_CAT_ID":60049,"ELEMENT_SET_NO":999,"REV_AT_EPOCH":9345,"BSTAR":-4.9073373e-5,"MEAN_MOTION_DOT":-6.525e-5,"MEAN_MOTION_DDOT":0},{"OBJECT_NAME":"STARLINK-11137 [DTC]","OBJECT_ID":"2024-112N","EPOCH":"2026-01-20T17:42:42.787872","MEAN_MOTION":15.69693527,"ECCENTRICITY":9.281e-5,"INCLINATION":53.1583,"RA_OF_ASC_NODE":142.3618,"ARG_OF_PERICENTER":105.3009,"MEAN_ANOMALY":254.8112,"EPHEMERIS_TYPE":0,"CLASSIFICATION_TYPE":"U","NORAD_CAT_ID":60050,"ELEMENT_SET_NO":999,"REV_AT_EPOCH":9345,"BSTAR":-7.0330581e-5,"MEAN_MOTION_DOT":-9.093e-5,"MEAN_MOTION_DDOT":0},{"OBJECT_NAME":"STARLINK-31811","OBJECT_ID":"2024-112P","EPOCH":"2026-01-20T22:57:43.710624","MEAN_MOTION":15.30206188,"ECCENTRICITY":0.00012713,"INCLINATION":53.1609,"RA_OF_ASC_NODE":300.0501,"ARG_OF_PERICENTER":87.8686,"MEAN_ANOMALY":272.246,"EPHEMERIS_TYPE":0,"CLASSIFICATION_TYPE":"U","NORAD_CAT_ID":60051,"ELEMENT_SET_NO":999,"REV_AT_EPOCH":9128,"BSTAR":2.4067261e-5,"MEAN_MOTION_DOT":3.54e-6,"MEAN_MOTION_DDOT":0}]
